{
    "links": {
        "self": "http://www.neowsapp.com/rest/v1/neo/3749064?api_key=iIulBulltgU6a56xZRHN4H3l9WmuAYTsLGpBGhQ2"
    },
    "id": "3749064",
    "neo_reference_id": "3749064",
    "name": "(2016 GR2)",
    "designation": "2016 GR2",
    "nasa_jpl_url": "http://ssd.jpl.nasa.gov/sbdb.cgi?sstr=3749064",
    "absolute_magnitude_h": 25.0,
    "estimated_diameter": {
        "kilometers": {
            "estimated_diameter_min": 0.02658,
            "estimated_diameter_max": 0.0594346868
        },
        "meters": {
            "estimated_diameter_min": 26.58,
            "estimated_diameter_max": 59.4346868419
        },
        "miles": {
            "estimated_diameter_min": 0.0165160412,
            "estimated_diameter_max": 0.0369309908
        },
        "feet": {
            "estimated_diameter_min": 87.2047272,
            "estimated_diameter_max": 194.9956979785
        }
    },
    "is_potentially_hazardous_asteroid": false,
    "close_approach_data": [
        {
            "close_approach_date": "2016-04-07",
            "close_approach_date_full": "2016-Apr-07 17:05",
            "epoch_date_close_approach": 1460048700000,
            "relative_velocity": {
                "kilometers_per_second": "4.921858123",
                "kilometers_per_hour": "17718.6892426258",
                "miles_per_hour": "11009.7044352305"
            },
            "miss_distance": {
                "astronomical": "0.1355275355",
                "lunar": "52.7202113095",
                "kilometers": "20274630.637149385",
                "miles": "12598071.297596113"
            },
            "orbiting_body": "Earth"
        }
    ],
    "orbital_data": {
        "orbit_id": "7",
        "orbit_determination_date": "2017-04-06 08:26:49",
        "first_observation_date": "2016-04-01",
        "last_observation_date": "2016-05-13",
        "data_arc_in_days": 42,
        "observations_used": 23,
        "orbit_uncertainty": "7",
        "minimum_orbit_intersection": ".132277",
        "jupiter_tisserand_invariant": "3.557",
        "epoch_osculation": "2459000.5",
        "eccentricity": ".4721174952951211",
        "semi_major_axis": "2.142881148723806",
        "inclination": "4.097133779250727",
        "ascending_node_longitude": "178.0592190445321",
        "orbital_period": "1145.765004535796",
        "perihelion_distance": "1.131189468073191",
        "perihelion_argument": "21.64961517231979",
        "aphelion_distance": "3.154572829374421",
        "perihelion_time": "2458632.770880776600",
        "mean_anomaly": "115.5406932454344",
        "mean_motion": ".3142005547165871",
        "equinox": "J2000",
        "orbit_class": {
            "orbit_class_type": "AMO",
            "orbit_class_description": "Near-Earth asteroid orbits similar to that of 1221 Amor",
            "orbit_class_range": "1.017 AU < q (perihelion) < 1.3 AU"
        }
    },
    "is_sentry_object": false
}